{
  "links" : {
    "next" : "https://api.nasa.gov/neo/rest/v1/feed?start_date=2010-10-09&end_date=2010-10-09&detailed=true&api_key=t0TVs3DtDT2H8Oy2Zy8m2eVrNsAVKAexjcZXUckd",
    "prev" : "https://api.nasa.gov/neo/rest/v1/feed?start_date=2010-10-07&end_date=2010-10-07&detailed=true&api_key=t0TVs3DtDT2H8Oy2Zy8m2eVrNsAVKAexjcZXUckd",
    "self" : "https://api.nasa.gov/neo/rest/v1/feed?start_date=2010-10-08&end_date=2010-10-08&detailed=true&api_key=t0TVs3DtDT2H8Oy2Zy8m2eVrNsAVKAexjcZXUckd"
  },
  "element_count" : 5,
  "near_earth_objects" : {
    "2010-10-08" : [ {
      "links" : {
        "self" : "https://api.nasa.gov/neo/rest/v1/neo/3175328?api_key=t0TVs3DtDT2H8Oy2Zy8m2eVrNsAVKAexjcZXUckd"
      },
      "neo_reference_id" : "3175328",
      "name" : "(2004 CE39)",
      "nasa_jpl_url" : "http://ssd.jpl.nasa.gov/sbdb.cgi?sstr=3175328",
      "absolute_magnitude_h" : 21.4,
      "estimated_diameter" : {
        "kilometers" : {
          "estimated_diameter_min" : 0.1394938229,
          "estimated_diameter_max" : 0.3119176705
        },
        "meters" : {
          "estimated_diameter_min" : 139.4938229344,
          "estimated_diameter_max" : 311.9176705226
        },
        "miles" : {
          "estimated_diameter_min" : 0.0866774163,
          "estimated_diameter_max" : 0.1938165949
        },
        "feet" : {
          "estimated_diameter_min" : 457.6569140361,
          "estimated_diameter_max" : 1023.3519701574
        }
      },
      "is_potentially_hazardous_asteroid" : false,
      "close_approach_data" : [ {
        "close_approach_date" : "2010-10-08",
        "epoch_date_close_approach" : 1286521200000,
        "relative_velocity" : {
          "kilometers_per_second" : "16.4045942393",
          "kilometers_per_hour" : "59056.5392616164",
          "miles_per_hour" : "36695.4368539749"
        },
        "miss_distance" : {
          "astronomical" : "0.2208746118",
          "lunar" : "85.9202194214",
          "kilometers" : "33042372",
          "miles" : "20531578"
        },
        "orbiting_body" : "Earth"
      } ],
      "orbital_data" : {
        "orbit_id" : "25",
        "orbit_determination_date" : "2017-04-06 09:13:10",
        "orbit_uncertainty" : "2",
        "minimum_orbit_intersection" : ".0781464",
        "jupiter_tisserand_invariant" : "5.845",
        "epoch_osculation" : "2458000.5",
        "eccentricity" : ".3913111970318248",
        "semi_major_axis" : "1.027208608418418",
        "inclination" : "17.70798528407041",
        "ascending_node_longitude" : "153.2475230271902",
        "orbital_period" : "380.2650420305567",
        "perihelion_distance" : ".6252503782568122",
        "perihelion_argument" : "126.0857325811944",
        "aphelion_distance" : "1.429166838580025",
        "perihelion_time" : "2458088.091445735072",
        "mean_anomaly" : "277.0764677808798",
        "mean_motion" : ".9467081119990822",
        "equinox" : "J2000"
      }
    }, {
      "links" : {
        "self" : "https://api.nasa.gov/neo/rest/v1/neo/3550137?api_key=t0TVs3DtDT2H8Oy2Zy8m2eVrNsAVKAexjcZXUckd"
      },
      "neo_reference_id" : "3550137",
      "name" : "(2010 VO)",
      "nasa_jpl_url" : "http://ssd.jpl.nasa.gov/sbdb.cgi?sstr=3550137",
      "absolute_magnitude_h" : 23.9,
      "estimated_diameter" : {
        "kilometers" : {
          "estimated_diameter_min" : 0.04411182,
          "estimated_diameter_max" : 0.0986370281
        },
        "meters" : {
          "estimated_diameter_min" : 44.1118199997,
          "estimated_diameter_max" : 98.6370281305
        },
        "miles" : {
          "estimated_diameter_min" : 0.0274098057,
          "estimated_diameter_max" : 0.0612901888
        },
        "feet" : {
          "estimated_diameter_min" : 144.7238235278,
          "estimated_diameter_max" : 323.6123073718
        }
      },
      "is_potentially_hazardous_asteroid" : false,
      "close_approach_data" : [ {
        "close_approach_date" : "2010-10-08",
        "epoch_date_close_approach" : 1286521200000,
        "relative_velocity" : {
          "kilometers_per_second" : "5.7372274888",
          "kilometers_per_hour" : "20654.0189597832",
          "miles_per_hour" : "12833.6041697609"
        },
        "miss_distance" : {
          "astronomical" : "0.1094081515",
          "lunar" : "42.5597724915",
          "kilometers" : "16367227",
          "miles" : "10170123"
        },
        "orbiting_body" : "Earth"
      } ],
      "orbital_data" : {
        "orbit_id" : "13",
        "orbit_determination_date" : "2017-04-06 08:55:59",
        "orbit_uncertainty" : "5",
        "minimum_orbit_intersection" : ".109753",
        "jupiter_tisserand_invariant" : "4.885",
        "epoch_osculation" : "2458000.5",
        "eccentricity" : ".1887581090257342",
        "semi_major_axis" : "1.332263567413817",
        "inclination" : "9.907646797008875",
        "ascending_node_longitude" : "30.82511179119304",
        "orbital_period" : "561.673138164778",
        "perihelion_distance" : "1.080788015704907",
        "perihelion_argument" : "319.2782710623385",
        "aphelion_distance" : "1.583739119122728",
        "perihelion_time" : "2458260.139946466394",
        "mean_anomaly" : "193.585809295939",
        "mean_motion" : ".6409421699892417",
        "equinox" : "J2000"
      }
    } ]
  }
}